KUIPER-00035            
1 63748U 25088AA  25231.91668981 -.00000644  00000+0 -55402-4 0  9997
2 63748  51.8999 286.3386 0006157 128.8368 167.8012 14.79827683  5681
KUIPER-00037            
1 63749U 25088AB  25231.91668981  .00001509  00000+0  22716-3 0  9998
2 63749  51.8987 285.3059 0007047  73.9147 215.8009 14.79911922  3722
KUIPER-00038            
1 63750U 25088AC  25231.91668981 -.00457153  00000+0 -24960-1 0  9993
2 63750  51.8832 273.6048 0005589 119.7331 231.2151 15.16035352  2943
KUIPER-00039            
1 64500U 25134A   25231.91668981 -.01619917  00000+0 -53236-1 0  9996
2 64500  51.8695  54.1223 0007438 317.7022 253.6366 15.33982334  9609
KUIPER-00040            
1 64501U 25134B   25231.91668981  .00031314  00000+0  22932-2 0  9993
2 64501  51.8861  58.1918 0016036 327.8951 354.9146 15.03194826  4915
KUIPER-00041            
1 64502U 25134C   25231.91668981 -.00463198  00000+0 -40657-1 0  9998
2 64502  51.8962  58.9227 0012727 324.8069 312.9660 14.98239898  5401
KUIPER-00042            
1 64503U 25134D   25231.91668981 -.01119306  00000+0 -66655-1 0  9995
2 64503  51.8801  56.7786 0011599 326.3997  16.6812 15.13526193  9577
KUIPER-00043            
1 64504U 25134E   25231.90890517  .00014282  00000+0  50205-3 0  9997
2 64504  51.8749  54.5311 0009593 325.6219  34.4143 15.29571988 10069
