<?xml version="1.0" encoding="UTF-8"?>
<ndm xmlns:xsi="http://www.w3.org/2001/XMLSchema-instance" xsi:noNamespaceSchemaLocation="https://sanaregistry.org/r/ndmxml_unqualified/ndmxml-2.0.0-master-2.0.xsd">
<omm id="CCSDS_OMM_VERS" version="2.0">
<header><CREATION_DATE/><ORIGINATOR/></header><body><segment><metadata><OBJECT_NAME>KUIPER-00035</OBJECT_NAME><OBJECT_ID>2025-088AA</OBJECT_ID><CENTER_NAME>EARTH</CENTER_NAME><REF_FRAME>TEME</REF_FRAME><TIME_SYSTEM>UTC</TIME_SYSTEM><MEAN_ELEMENT_THEORY>SGP4</MEAN_ELEMENT_THEORY></metadata><data><meanElements><EPOCH>2025-08-19T22:00:01.999584</EPOCH><MEAN_MOTION>14.79827683</MEAN_MOTION><ECCENTRICITY>.0006157</ECCENTRICITY><INCLINATION>51.8999</INCLINATION><RA_OF_ASC_NODE>286.3386</RA_OF_ASC_NODE><ARG_OF_PERICENTER>128.8368</ARG_OF_PERICENTER><MEAN_ANOMALY>167.8012</MEAN_ANOMALY></meanElements><tleParameters><EPHEMERIS_TYPE>0</EPHEMERIS_TYPE><CLASSIFICATION_TYPE>U</CLASSIFICATION_TYPE><NORAD_CAT_ID>63748</NORAD_CAT_ID><ELEMENT_SET_NO>999</ELEMENT_SET_NO><REV_AT_EPOCH>568</REV_AT_EPOCH><BSTAR>-.55402E-4</BSTAR><MEAN_MOTION_DOT>-.644E-5</MEAN_MOTION_DOT><MEAN_MOTION_DDOT>0</MEAN_MOTION_DDOT></tleParameters></data></segment></body></omm>
<omm id="CCSDS_OMM_VERS" version="2.0">
<header><CREATION_DATE/><ORIGINATOR/></header><body><segment><metadata><OBJECT_NAME>KUIPER-00037</OBJECT_NAME><OBJECT_ID>2025-088AB</OBJECT_ID><CENTER_NAME>EARTH</CENTER_NAME><REF_FRAME>TEME</REF_FRAME><TIME_SYSTEM>UTC</TIME_SYSTEM><MEAN_ELEMENT_THEORY>SGP4</MEAN_ELEMENT_THEORY></metadata><data><meanElements><EPOCH>2025-08-19T22:00:01.999584</EPOCH><MEAN_MOTION>14.79911922</MEAN_MOTION><ECCENTRICITY>.0007047</ECCENTRICITY><INCLINATION>51.8987</INCLINATION><RA_OF_ASC_NODE>285.3059</RA_OF_ASC_NODE><ARG_OF_PERICENTER>73.9147</ARG_OF_PERICENTER><MEAN_ANOMALY>215.8009</MEAN_ANOMALY></meanElements><tleParameters><EPHEMERIS_TYPE>0</EPHEMERIS_TYPE><CLASSIFICATION_TYPE>U</CLASSIFICATION_TYPE><NORAD_CAT_ID>63749</NORAD_CAT_ID><ELEMENT_SET_NO>999</ELEMENT_SET_NO><REV_AT_EPOCH>372</REV_AT_EPOCH><BSTAR>.22716E-3</BSTAR><MEAN_MOTION_DOT>.1509E-4</MEAN_MOTION_DOT><MEAN_MOTION_DDOT>0</MEAN_MOTION_DDOT></tleParameters></data></segment></body></omm>
<omm id="CCSDS_OMM_VERS" version="2.0">
<header><CREATION_DATE/><ORIGINATOR/></header><body><segment><metadata><OBJECT_NAME>KUIPER-00038</OBJECT_NAME><OBJECT_ID>2025-088AC</OBJECT_ID><CENTER_NAME>EARTH</CENTER_NAME><REF_FRAME>TEME</REF_FRAME><TIME_SYSTEM>UTC</TIME_SYSTEM><MEAN_ELEMENT_THEORY>SGP4</MEAN_ELEMENT_THEORY></metadata><data><meanElements><EPOCH>2025-08-19T22:00:01.999584</EPOCH><MEAN_MOTION>15.16035352</MEAN_MOTION><ECCENTRICITY>.0005589</ECCENTRICITY><INCLINATION>51.8832</INCLINATION><RA_OF_ASC_NODE>273.6048</RA_OF_ASC_NODE><ARG_OF_PERICENTER>119.7331</ARG_OF_PERICENTER><MEAN_ANOMALY>231.2151</MEAN_ANOMALY></meanElements><tleParameters><EPHEMERIS_TYPE>0</EPHEMERIS_TYPE><CLASSIFICATION_TYPE>U</CLASSIFICATION_TYPE><NORAD_CAT_ID>63750</NORAD_CAT_ID><ELEMENT_SET_NO>999</ELEMENT_SET_NO><REV_AT_EPOCH>294</REV_AT_EPOCH><BSTAR>-.2496E-1</BSTAR><MEAN_MOTION_DOT>-.457153E-2</MEAN_MOTION_DOT><MEAN_MOTION_DDOT>0</MEAN_MOTION_DDOT></tleParameters></data></segment></body></omm>
<omm id="CCSDS_OMM_VERS" version="2.0">
<header><CREATION_DATE/><ORIGINATOR/></header><body><segment><metadata><OBJECT_NAME>KUIPER-00039</OBJECT_NAME><OBJECT_ID>2025-134A</OBJECT_ID><CENTER_NAME>EARTH</CENTER_NAME><REF_FRAME>TEME</REF_FRAME><TIME_SYSTEM>UTC</TIME_SYSTEM><MEAN_ELEMENT_THEORY>SGP4</MEAN_ELEMENT_THEORY></metadata><data><meanElements><EPOCH>2025-08-19T22:00:01.999584</EPOCH><MEAN_MOTION>15.33982334</MEAN_MOTION><ECCENTRICITY>.0007438</ECCENTRICITY><INCLINATION>51.8695</INCLINATION><RA_OF_ASC_NODE>54.1223</RA_OF_ASC_NODE><ARG_OF_PERICENTER>317.7022</ARG_OF_PERICENTER><MEAN_ANOMALY>253.6366</MEAN_ANOMALY></meanElements><tleParameters><EPHEMERIS_TYPE>0</EPHEMERIS_TYPE><CLASSIFICATION_TYPE>U</CLASSIFICATION_TYPE><NORAD_CAT_ID>64500</NORAD_CAT_ID><ELEMENT_SET_NO>999</ELEMENT_SET_NO><REV_AT_EPOCH>960</REV_AT_EPOCH><BSTAR>-.53236E-1</BSTAR><MEAN_MOTION_DOT>-.1619917E-1</MEAN_MOTION_DOT><MEAN_MOTION_DDOT>0</MEAN_MOTION_DDOT></tleParameters></data></segment></body></omm>
<omm id="CCSDS_OMM_VERS" version="2.0">
<header><CREATION_DATE/><ORIGINATOR/></header><body><segment><metadata><OBJECT_NAME>KUIPER-00040</OBJECT_NAME><OBJECT_ID>2025-134B</OBJECT_ID><CENTER_NAME>EARTH</CENTER_NAME><REF_FRAME>TEME</REF_FRAME><TIME_SYSTEM>UTC</TIME_SYSTEM><MEAN_ELEMENT_THEORY>SGP4</MEAN_ELEMENT_THEORY></metadata><data><meanElements><EPOCH>2025-08-19T22:00:01.999584</EPOCH><MEAN_MOTION>15.03194826</MEAN_MOTION><ECCENTRICITY>.0016036</ECCENTRICITY><INCLINATION>51.8861</INCLINATION><RA_OF_ASC_NODE>58.1918</RA_OF_ASC_NODE><ARG_OF_PERICENTER>327.8951</ARG_OF_PERICENTER><MEAN_ANOMALY>354.9146</MEAN_ANOMALY></meanElements><tleParameters><EPHEMERIS_TYPE>0</EPHEMERIS_TYPE><CLASSIFICATION_TYPE>U</CLASSIFICATION_TYPE><NORAD_CAT_ID>64501</NORAD_CAT_ID><ELEMENT_SET_NO>999</ELEMENT_SET_NO><REV_AT_EPOCH>491</REV_AT_EPOCH><BSTAR>.22932E-2</BSTAR><MEAN_MOTION_DOT>.31314E-3</MEAN_MOTION_DOT><MEAN_MOTION_DDOT>0</MEAN_MOTION_DDOT></tleParameters></data></segment></body></omm>
<omm id="CCSDS_OMM_VERS" version="2.0">
<header><CREATION_DATE/><ORIGINATOR/></header><body><segment><metadata><OBJECT_NAME>KUIPER-00041</OBJECT_NAME><OBJECT_ID>2025-134C</OBJECT_ID><CENTER_NAME>EARTH</CENTER_NAME><REF_FRAME>TEME</REF_FRAME><TIME_SYSTEM>UTC</TIME_SYSTEM><MEAN_ELEMENT_THEORY>SGP4</MEAN_ELEMENT_THEORY></metadata><data><meanElements><EPOCH>2025-08-19T22:00:01.999584</EPOCH><MEAN_MOTION>14.98239898</MEAN_MOTION><ECCENTRICITY>.0012727</ECCENTRICITY><INCLINATION>51.8962</INCLINATION><RA_OF_ASC_NODE>58.9227</RA_OF_ASC_NODE><ARG_OF_PERICENTER>324.8069</ARG_OF_PERICENTER><MEAN_ANOMALY>312.9660</MEAN_ANOMALY></meanElements><tleParameters><EPHEMERIS_TYPE>0</EPHEMERIS_TYPE><CLASSIFICATION_TYPE>U</CLASSIFICATION_TYPE><NORAD_CAT_ID>64502</NORAD_CAT_ID><ELEMENT_SET_NO>999</ELEMENT_SET_NO><REV_AT_EPOCH>540</REV_AT_EPOCH><BSTAR>-.40657E-1</BSTAR><MEAN_MOTION_DOT>-.463198E-2</MEAN_MOTION_DOT><MEAN_MOTION_DDOT>0</MEAN_MOTION_DDOT></tleParameters></data></segment></body></omm>
<omm id="CCSDS_OMM_VERS" version="2.0">
<header><CREATION_DATE/><ORIGINATOR/></header><body><segment><metadata><OBJECT_NAME>KUIPER-00042</OBJECT_NAME><OBJECT_ID>2025-134D</OBJECT_ID><CENTER_NAME>EARTH</CENTER_NAME><REF_FRAME>TEME</REF_FRAME><TIME_SYSTEM>UTC</TIME_SYSTEM><MEAN_ELEMENT_THEORY>SGP4</MEAN_ELEMENT_THEORY></metadata><data><meanElements><EPOCH>2025-08-19T22:00:01.999584</EPOCH><MEAN_MOTION>15.13526193</MEAN_MOTION><ECCENTRICITY>.0011599</ECCENTRICITY><INCLINATION>51.8801</INCLINATION><RA_OF_ASC_NODE>56.7786</RA_OF_ASC_NODE><ARG_OF_PERICENTER>326.3997</ARG_OF_PERICENTER><MEAN_ANOMALY>16.6812</MEAN_ANOMALY></meanElements><tleParameters><EPHEMERIS_TYPE>0</EPHEMERIS_TYPE><CLASSIFICATION_TYPE>U</CLASSIFICATION_TYPE><NORAD_CAT_ID>64503</NORAD_CAT_ID><ELEMENT_SET_NO>999</ELEMENT_SET_NO><REV_AT_EPOCH>957</REV_AT_EPOCH><BSTAR>-.66655E-1</BSTAR><MEAN_MOTION_DOT>-.1119306E-1</MEAN_MOTION_DOT><MEAN_MOTION_DDOT>0</MEAN_MOTION_DDOT></tleParameters></data></segment></body></omm>
<omm id="CCSDS_OMM_VERS" version="2.0">
<header><CREATION_DATE/><ORIGINATOR/></header><body><segment><metadata><OBJECT_NAME>KUIPER-00043</OBJECT_NAME><OBJECT_ID>2025-134E</OBJECT_ID><CENTER_NAME>EARTH</CENTER_NAME><REF_FRAME>TEME</REF_FRAME><TIME_SYSTEM>UTC</TIME_SYSTEM><MEAN_ELEMENT_THEORY>SGP4</MEAN_ELEMENT_THEORY></metadata><data><meanElements><EPOCH>2025-08-19T21:48:49.406688</EPOCH><MEAN_MOTION>15.29571988</MEAN_MOTION><ECCENTRICITY>.0009593</ECCENTRICITY><INCLINATION>51.8749</INCLINATION><RA_OF_ASC_NODE>54.5311</RA_OF_ASC_NODE><ARG_OF_PERICENTER>325.6219</ARG_OF_PERICENTER><MEAN_ANOMALY>34.4143</MEAN_ANOMALY></meanElements><tleParameters><EPHEMERIS_TYPE>0</EPHEMERIS_TYPE><CLASSIFICATION_TYPE>U</CLASSIFICATION_TYPE><NORAD_CAT_ID>64504</NORAD_CAT_ID><ELEMENT_SET_NO>999</ELEMENT_SET_NO><REV_AT_EPOCH>1006</REV_AT_EPOCH><BSTAR>.50205E-3</BSTAR><MEAN_MOTION_DOT>.14282E-3</MEAN_MOTION_DOT><MEAN_MOTION_DDOT>0</MEAN_MOTION_DDOT></tleParameters></data></segment></body></omm>

</ndm>
